{
  "type": "FeatureCollection",
  "features": [
    {
      "type": "Feature",
      "geometry": {
        "type": "Point",
        "coordinates": [
          -66.5897,
          6.4238
        ]
      },
      "properties": {
        "id_hash": "704bc030cb44f34fca0cfaee680b3f0f9360b2ecaba484cd27f55c25e7567793",
        "title": "From Caracas 'fort' to New York court: Maduro's capture in pictures and maps",
        "summary": "Follow the operation to seize the Venezuelan president through photos, satellite images and maps.",
        "link": "https://www.bbc.com/news/articles/c5yvxnlw1pzo?at_medium=RSS&at_campaign=rss",
        "severity": 0,
        "scraped_at": "2026-01-04T18:54:29.054152+00:00"
      }
    },
    {
      "type": "Feature",
      "geometry": {
        "type": "Point",
        "coordinates": [
          -66.5897,
          6.4238
        ]
      },
      "properties": {
        "id_hash": "d27d440ce34c1e639fe48c7ed3d63c9581817afd91080f9147f6d713c72c9525",
        "title": "'A long road ahead': Venezuelans react to Maduro's arrest with hope and worry",
        "summary": "Caracas residents worry about what comes after US intervention in their country amid a tense political climate.",
        "link": "https://www.bbc.com/news/articles/c86vq753nwpo?at_medium=RSS&at_campaign=rss",
        "severity": 0,
        "scraped_at": "2026-01-04T18:54:29.054240+00:00"
      }
    },
    {
      "type": "Feature",
      "geometry": {
        "type": "Point",
        "coordinates": [
          -98.5795,
          39.8283
        ]
      },
      "properties": {
        "id_hash": "1cc8ea8adf2d43840222cc01233874093b8af313548882909bbaec3bcdbeeb97",
        "title": "Thousands stranded across Europe as Greece airspace disrupted",
        "summary": "A fault with radio communications caused air traffic controllers to temporarily suspend arrivals and departures.",
        "link": "https://www.bbc.com/news/articles/cgezjlzwz1do?at_medium=RSS&at_campaign=rss",
        "severity": 0,
        "scraped_at": "2026-01-04T18:54:29.054303+00:00"
      }
    },
    {
      "type": "Feature",
      "geometry": {
        "type": "Point",
        "coordinates": [
          -66.5897,
          6.4238
        ]
      },
      "properties": {
        "id_hash": "02ac8e78f16787b3dde53029e3ef7251ce1d7341c058ec783836a5c25724593f",
        "title": "'Deeply shocked': World leaders react to US attack on Venezuela",
        "summary": "There has been a mixed reaction to a large-scale strike on Venezuela and Maduro's capture by the US.",
        "link": "https://www.bbc.com/news/articles/czx1rpxzyx9o?at_medium=RSS&at_campaign=rss",
        "severity": 4,
        "scraped_at": "2026-01-04T18:54:29.054353+00:00"
      }
    },
    {
      "type": "Feature",
      "geometry": {
        "type": "Point",
        "coordinates": [
          -3.12975,
          48.16193
        ]
      },
      "properties": {
        "id_hash": "2286dda80a8edbfbb32f3ee26812407df8b9a200f6236d40ae83f5bfc2434c62",
        "title": "Brigitte Bardot Foundation issues warning about scam memorabilia",
        "summary": "Online adverts tout merchandise of the actress with claims the proceeds will go to her charity, it says.",
        "link": "https://www.bbc.com/news/articles/c4g4vypvqvxo?at_medium=RSS&at_campaign=rss",
        "severity": 2,
        "scraped_at": "2026-01-04T18:54:30.531734+00:00"
      }
    },
    {
      "type": "Feature",
      "geometry": {
        "type": "Point",
        "coordinates": [
          -71.8601487,
          41.3459294
        ]
      },
      "properties": {
        "id_hash": "d6cb6d3530d81f7b1f8718fb76f639f031694ee629fe2757faa03561e2ec98d1",
        "title": "Wicked composer latest to cancel Kennedy Center gig after Trump name change",
        "summary": "Stephen Schwartz says he will not appear at the arts venue as it \"has now become an ideological statement\".",
        "link": "https://www.bbc.com/news/articles/c5y2r0yvj25o?at_medium=RSS&at_campaign=rss",
        "severity": 2,
        "scraped_at": "2026-01-04T18:54:31.954691+00:00"
      }
    },
    {
      "type": "Feature",
      "geometry": {
        "type": "Point",
        "coordinates": [
          53.688,
          32.4279
        ]
      },
      "properties": {
        "id_hash": "2187ad5a9d4da41ff5153f033524675dd5061ac3d5cc08539a770b20d4914311",
        "title": "Trump warning over Iran protests 'reckless' says foreign minister",
        "summary": "The US president earlier said if peaceful protesters are killed, Washington \"will come to their rescue\".",
        "link": "https://www.bbc.com/news/articles/c2057md3gvro?at_medium=RSS&at_campaign=rss",
        "severity": 4,
        "scraped_at": "2026-01-04T18:54:31.954796+00:00"
      }
    },
    {
      "type": "Feature",
      "geometry": {
        "type": "Point",
        "coordinates": [
          1.8883335,
          46.603354
        ]
      },
      "properties": {
        "id_hash": "ccec077f0fe6b343092df2a18c400eb318f3fa7a64c815327516d73089ad8146",
        "title": "UK and France bomb underground IS arms bunker in Syria",
        "summary": "RAF Typhoon jets joined French aircraft in a strike on an Islamic State group arms store in Syria, UK officials say.",
        "link": "https://www.bbc.com/news/articles/c1m7l8keyexo?at_medium=RSS&at_campaign=rss",
        "severity": 2,
        "scraped_at": "2026-01-04T18:54:33.532241+00:00"
      }
    },
    {
      "type": "Feature",
      "geometry": {
        "type": "Point",
        "coordinates": [
          -66.5897,
          6.4238
        ]
      },
      "properties": {
        "id_hash": "520feb39272c9671b2352eef693e3a56acc2b823eadbb5b939b853d3d082957b",
        "title": "Who's in charge of Venezuela and what happens next?",
        "summary": "Donald Trump says the US will \"run\" Venezuela until a \"safe\" transition after capturing its president and first lady.",
        "link": "https://www.bbc.com/news/articles/crmlz7r0zrxo?at_medium=RSS&at_campaign=rss",
        "severity": 0,
        "scraped_at": "2026-01-04T18:54:33.532347+00:00"
      }
    },
    {
      "type": "Feature",
      "geometry": {
        "type": "Point",
        "coordinates": [
          -66.5897,
          6.4238
        ]
      },
      "properties": {
        "id_hash": "943880423436259555cb676c3a4f68585ea237a0be4aa9c69da6818fb46df246",
        "title": "Spies, drones and blowtorches: How the US captured Maduro",
        "summary": "An extraordinary mission dubbed \"Operation Absolute Resolve\" saw elite troops breach the Venezuelan president's fortified compound.",
        "link": "https://www.bbc.com/news/articles/cdred61epg4o?at_medium=RSS&at_campaign=rss",
        "severity": 0,
        "scraped_at": "2026-01-04T18:54:33.532385+00:00"
      }
    },
    {
      "type": "Feature",
      "geometry": {
        "type": "Point",
        "coordinates": [
          -66.5897,
          6.4238
        ]
      },
      "properties": {
        "id_hash": "adf1ae027d74036c491d0307c9ca11a3d563aa6f59b8af8e912fc44672c049a0",
        "title": "Why has Trump attacked Venezuela and taken Maduro?",
        "summary": "The US has been ramping up pressure on the Venezuelan leader since Trump took office last January.",
        "link": "https://www.bbc.com/news/articles/c93n4nx5yqro?at_medium=RSS&at_campaign=rss",
        "severity": 2,
        "scraped_at": "2026-01-04T18:54:33.532435+00:00"
      }
    },
    {
      "type": "Feature",
      "geometry": {
        "type": "Point",
        "coordinates": [
          -66.5897,
          6.4238
        ]
      },
      "properties": {
        "id_hash": "c65dbb72c54f9d3e2d362092e9235c1ba5e04c017787821a2b0d4c35be38cb51",
        "title": "Video shows Maduro's arrival in US and journey into custody",
        "summary": "The Venezuelan president is in custody in New York after he was captured during US strikes on Saturday.",
        "link": "https://www.bbc.com/news/videos/cly308pn4r8o?at_medium=RSS&at_campaign=rss",
        "severity": 2,
        "scraped_at": "2026-01-04T18:54:33.532498+00:00"
      }
    },
    {
      "type": "Feature",
      "geometry": {
        "type": "Point",
        "coordinates": [
          -66.5897,
          6.4238
        ]
      },
      "properties": {
        "id_hash": "857f51224adb3cffffbaa9e3f949c0dcd1e488b62057582c6f44a1e2c80fea65",
        "title": "Watch: 'I'm so happy' - Venezuelans in the US react to Maduro's capture",
        "summary": "The BBC's Bernd Debusmann reports from Doral Florida, where the Venezuelan-American community has gathered to celebrate the US attack.",
        "link": "https://www.bbc.com/news/videos/c5y2xqgjd7eo?at_medium=RSS&at_campaign=rss",
        "severity": 2,
        "scraped_at": "2026-01-04T18:54:33.532528+00:00"
      }
    },
    {
      "type": "Feature",
      "geometry": {
        "type": "Point",
        "coordinates": [
          -66.5897,
          6.4238
        ]
      },
      "properties": {
        "id_hash": "4b286cf0033096496c203ec7c3bd9477f62921cba1d9d0cc55fcc9cf6875baa1",
        "title": "Trump on Venezuela: 'We are going to run the country'",
        "summary": "President Donald Trump announced that the US will run Venezuela until a 'proper transition can take place.'",
        "link": "https://www.bbc.com/news/videos/c368px35ly8o?at_medium=RSS&at_campaign=rss",
        "severity": 0,
        "scraped_at": "2026-01-04T18:54:33.532559+00:00"
      }
    },
    {
      "type": "Feature",
      "geometry": {
        "type": "Point",
        "coordinates": [
          -66.5897,
          6.4238
        ]
      },
      "properties": {
        "id_hash": "cd9333e02cd9229db15bd22d8ebdf6e71783c6553625c1c1ee2a8742b6abb06d",
        "title": "Explosions and smoke at La Guaira port",
        "summary": "Venezuela has declared a national emergency, denouncing \"extremely serious military aggression\"",
        "link": "https://www.bbc.com/news/videos/c20zgq02jp0o?at_medium=RSS&at_campaign=rss",
        "severity": 2,
        "scraped_at": "2026-01-04T18:54:33.532586+00:00"
      }
    },
    {
      "type": "Feature",
      "geometry": {
        "type": "Point",
        "coordinates": [
          39.0494106,
          34.6401861
        ]
      },
      "properties": {
        "id_hash": "d940c95bb7f6b770c58754d5eb2f94328bfea0d4d706df209433e687542ddc95",
        "title": "Syrian government and Kurdish-led SDF fail to progress on military merger",
        "summary": "The implementation of a deal to integrate SDF forces with state institutions has stalled since it was signed in March.",
        "link": "https://www.aljazeera.com/news/2026/1/4/syrian-government-and-kurdish-led-sdf-fail-to-progress-on-military-merger?traffic_source=rss",
        "severity": 0,
        "scraped_at": "2026-01-04T18:54:39.707137+00:00"
      }
    },
    {
      "type": "Feature",
      "geometry": {
        "type": "Point",
        "coordinates": [
          7.9999721,
          9.6000359
        ]
      },
      "properties": {
        "id_hash": "5a9dacce9123143effd5e1df9aff891bc89e964509e962e5fdfa2a42070bfe90",
        "title": "Nigeria vs Mozambique: AFCON 2025 – team news, start time and lineups",
        "summary": "Nigeria face Mozambique in a knockout clash as the tournament&#039;s most potent attackers chase their fourth title.",
        "link": "https://www.aljazeera.com/sports/2026/1/4/nigeria-vs-mozambique-afcon-2025-team-news-start-time-lineups-lookman-osimhen?traffic_source=rss",
        "severity": 2,
        "scraped_at": "2026-01-04T18:54:41.103364+00:00"
      }
    },
    {
      "type": "Feature",
      "geometry": {
        "type": "Point",
        "coordinates": [
          31.1656,
          48.3794
        ]
      },
      "properties": {
        "id_hash": "962552f43a916033b78f3c8a64a4d056a8496245dfd7d4903c8e9f7ad6da8fec",
        "title": "UN General Assembly president on war, vetoes and UN reform",
        "summary": "Annalena Baerbock on UN credibility, Security Council vetoes, Gaza, Ukraine, and whether reform is possible before 2030.",
        "link": "https://www.aljazeera.com/video/talk-to-al-jazeera/2026/1/4/un-general-assembly-president-on-war-vetoes-and-un-reform?traffic_source=rss",
        "severity": 2,
        "scraped_at": "2026-01-04T18:54:41.103469+00:00"
      }
    },
    {
      "type": "Feature",
      "geometry": {
        "type": "Point",
        "coordinates": [
          7.9999721,
          9.6000359
        ]
      },
      "properties": {
        "id_hash": "4baf18c9aed921c0399899602170c93c7d94ab8d8713758c0e23dcab54ac790a",
        "title": "Gunmen kill over 30 in village raid, abduct others in northern Nigeria",
        "summary": "Witnesses say the attackers drove motorcycles and opened fire indiscriminately on the Kasuwan ⁠Daji market in Demo.",
        "link": "https://www.aljazeera.com/news/2026/1/4/gunmen-kill-over-30-in-village-raid-abduct-others-in-northern-nigeria?traffic_source=rss",
        "severity": 2,
        "scraped_at": "2026-01-04T18:54:43.922091+00:00"
      }
    },
    {
      "type": "Feature",
      "geometry": {
        "type": "Point",
        "coordinates": [
          -66.5897,
          6.4238
        ]
      },
      "properties": {
        "id_hash": "f27a13c5f6d35d80b69d36a608e896d0e75bd0f6f74ece618237be1df183ff15",
        "title": "Venezuelans divided after US attack and Maduro’s abduction",
        "summary": "Venezuelans are divided between fear of ongoing US intervention and celebrating Maduro&#039;s removal.",
        "link": "https://www.aljazeera.com/video/newsfeed/2026/1/4/venezuelans-divided-after-us-attack-and-maduros-abduction?traffic_source=rss",
        "severity": 2,
        "scraped_at": "2026-01-04T18:54:43.922257+00:00"
      }
    },
    {
      "type": "Feature",
      "geometry": {
        "type": "Point",
        "coordinates": [
          -66.5897,
          6.4238
        ]
      },
      "properties": {
        "id_hash": "e67e013ca3b4b89a1b3d97b5238f2b655313a1bc60671de73f217e0a526d4d56",
        "title": "Photo of Maduro bound and blindfolded posted by Trump sparks condemnation",
        "summary": "The image of abducted Venezuelan President Nicolas Maduro bound and blindfolded prompted shock and condemnation.",
        "link": "https://www.aljazeera.com/video/newsfeed/2026/1/4/photo-of-maduro-bound-and-blindfolded-posted-by-trump-sparks-condemnation?traffic_source=rss",
        "severity": 0,
        "scraped_at": "2026-01-04T18:54:43.922320+00:00"
      }
    },
    {
      "type": "Feature",
      "geometry": {
        "type": "Point",
        "coordinates": [
          -66.5897,
          6.4238
        ]
      },
      "properties": {
        "id_hash": "d7b4e295cf2bc35f94452f65d17e06bc04ac3c3b12ca86a66d61a05d18f4ba91",
        "title": "Who is Venezuelan Vice President Delcy Rodriguez, now leading the country?",
        "summary": "Rodriguez has a long history of representing the socialist &#039;revolution&#039; of late President Hugo Chavez.",
        "link": "https://www.aljazeera.com/news/2026/1/4/who-is-venezuelan-vice-president-delcy-rodriguez-now-leading-the-country?traffic_source=rss",
        "severity": 0,
        "scraped_at": "2026-01-04T18:54:43.922370+00:00"
      }
    },
    {
      "type": "Feature",
      "geometry": {
        "type": "Point",
        "coordinates": [
          -66.5897,
          6.4238
        ]
      },
      "properties": {
        "id_hash": "6a6a4a572d5a544d8ebde3928b16ab586854ae84191a33673b5b97d624bdebd0",
        "title": "We just witnessed power kidnapping the law",
        "summary": "The US attack on Venezuela and the abduction of its leader have no basis in law.",
        "link": "https://www.aljazeera.com/opinions/2026/1/4/we-just-witnessed-power-kidnapping-the-law?traffic_source=rss",
        "severity": 2,
        "scraped_at": "2026-01-04T18:54:43.922464+00:00"
      }
    },
    {
      "type": "Feature",
      "geometry": {
        "type": "Point",
        "coordinates": [
          -66.5897,
          6.4238
        ]
      },
      "properties": {
        "id_hash": "d0f09369b72eb9e4417dfc7f098622bc7475b578e25e5db568050fa68683e56b",
        "title": "Trump’s action in Venezuela sets a “very dangerous precedent”",
        "summary": "“They&#039;re [China] working with other Latin American and Caribbean countries to say, This isn&#039;t right.”",
        "link": "https://www.aljazeera.com/video/quotable/2026/1/4/trumps-action-in-venezuela-sets-a-very-dangerous?traffic_source=rss",
        "severity": 0,
        "scraped_at": "2026-01-04T18:54:43.922506+00:00"
      }
    },
    {
      "type": "Feature",
      "geometry": {
        "type": "Point",
        "coordinates": [
          -66.5897,
          6.4238
        ]
      },
      "properties": {
        "id_hash": "13873c1f779b09c74050f0353f6fd233d0f8c9601402b4788f5cd39f84a1b921",
        "title": "What is the Monroe Doctrine, which Trump has cited over Venezuela?",
        "summary": "US attack on Venezuela evokes Monroe Doctrine, laid out in 1823 to cement Washington&#039;s sphere of influence in Americas.",
        "link": "https://www.aljazeera.com/news/2026/1/4/what-is-the-monroe-doctrine-which-trump-has-cited-over-venezuela?traffic_source=rss",
        "severity": 2,
        "scraped_at": "2026-01-04T18:54:43.922535+00:00"
      }
    },
    {
      "type": "Feature",
      "geometry": {
        "type": "Point",
        "coordinates": [
          -66.5897,
          6.4238
        ]
      },
      "properties": {
        "id_hash": "ff34b7bbeed55a5c2224d34b3e3f5490da84d023d77d6e63250c8cee03e43396",
        "title": "China urges US to ‘stop toppling’ Venezuelan government, release Maduro",
        "summary": "Beijing is likely to limit its response to diplomatic protest rather than hard power, analysts tell Al Jazeera.",
        "link": "https://www.aljazeera.com/news/2026/1/4/china-urges-us-to-stop-toppling-venezuelan-government-release-maduro?traffic_source=rss",
        "severity": 0,
        "scraped_at": "2026-01-04T18:54:43.922607+00:00"
      }
    },
    {
      "type": "Feature",
      "geometry": {
        "type": "Point",
        "coordinates": [
          -66.5897,
          6.4238
        ]
      },
      "properties": {
        "id_hash": "a2163accc313245cf6eed2f23596e9df088f2e727db6dfc367793dd68c9443a6",
        "title": "Global protests erupt against US attack on Venezuela",
        "summary": "Protesters have rallied worldwide after Donald Trump announced the US would ‘run’ Venezuela.",
        "link": "https://www.aljazeera.com/video/newsfeed/2026/1/4/global-protests-erupt-against-us-attack-on-venezuela?traffic_source=rss",
        "severity": 2,
        "scraped_at": "2026-01-04T18:54:43.922663+00:00"
      }
    },
    {
      "type": "Feature",
      "geometry": {
        "type": "Point",
        "coordinates": [
          -66.5897,
          6.4238
        ]
      },
      "properties": {
        "id_hash": "d185cb6c87079bcb0d90cc1eee7552bd7d54bd0732967d02ea4f388e984b85a4",
        "title": "How the US attack on Venezuela, abduction of Maduro unfolded",
        "summary": "After months of planning, US forces, with 150 jets taking off from 20 airbases, undertook an operation to seize Maduro.",
        "link": "https://www.aljazeera.com/news/2026/1/4/how-the-us-attack-on-venezuela-abduction-of-maduro-unfolded?traffic_source=rss",
        "severity": 2,
        "scraped_at": "2026-01-04T18:54:43.922691+00:00"
      }
    },
    {
      "type": "Feature",
      "geometry": {
        "type": "Point",
        "coordinates": [
          -66.5897,
          6.4238
        ]
      },
      "properties": {
        "id_hash": "fb94e31d3542d011e6be13c398a9bb0d9bd9630e3399dfa5eeab64001cdd587e",
        "title": "Notion of “taking over Venezuela” will explode in our face",
        "summary": "Harlan Ullman, a senior advisor at Atlantic Council talks about Donald Trump’s plan to take over Venezuela.",
        "link": "https://www.aljazeera.com/video/quotable/2026/1/4/aje-onl-qt_harlan_ullman-040126?traffic_source=rss",
        "severity": 0,
        "scraped_at": "2026-01-04T18:54:43.922732+00:00"
      }
    },
    {
      "type": "Feature",
      "geometry": {
        "type": "Point",
        "coordinates": [
          -66.5897,
          6.4238
        ]
      },
      "properties": {
        "id_hash": "cbe422129c56580fd24ddda01b6e1c90db63fffd6d9c18eadfbe41fc18f9fae8",
        "title": "‘Extremely dangerous precedent’ set by Trump’s attack on Venezuela, six countries warn – live",
        "summary": "<p>Spain, Brazil, Chile, Colombia, Mexico and Uruguay say US actions ‘constitute an extremely dangerous precedent for peace and regional security’</p><ul><li><p><a href=\"https://www.theguardian.com/world/2026/jan/04/venezuela-trump-rubio-republicans\">Top Republicans backpedal from Trump claim that US will run Venezuela</a></p></li></ul><p>Keir Starmer also told the BBC that he thinks we are living in a more “volatile” world than we have been for “many, many years” and said global affairs have much more of a “direct impact” on the UK than they have in a long time, citing the effects of military conflicts and the climate crisis.</p><p>Asked if Donald Trump is worsening global turmoil, Starmer dodges the question and speaks about the so-called special relationship between the UK and the US.</p><p><em>The relationship between the US and the UK is one of the closest relationships in the world. It is vitally important for our defence, for our security, for our intelligence.</em></p><p><em>It is my responsibility to make sure that relationship works as the prime minister of this country, working with the president of the United States. Not only have I stepped up to that responsibility, I have made it my business and I do get on with President Trump.</em></p> <a href=\"https://www.theguardian.com/world/live/2026/jan/04/nicolas-maduro-jailed-us-attack-venezuela-donald-trump-reaction-latest-news-updates-live\">Continue reading...</a>",
        "link": "https://www.theguardian.com/world/live/2026/jan/04/nicolas-maduro-jailed-us-attack-venezuela-donald-trump-reaction-latest-news-updates-live",
        "severity": 4,
        "scraped_at": "2026-01-04T18:54:44.523692+00:00"
      }
    },
    {
      "type": "Feature",
      "geometry": {
        "type": "Point",
        "coordinates": [
          -66.5897,
          6.4238
        ]
      },
      "properties": {
        "id_hash": "adfa5c47710c2d7a248125c269671a0ca1e7eda9f29c5db5b7da3624d19057db",
        "title": "‘They lied to our face’: Democrats decry Trump’s military raid on Venezuela",
        "summary": "<p>Lawmakers call US intervention and capture of Maduro ‘wildly illegal’ and say it lacked congressional approval</p><ul><li><p><a href=\"https://www.theguardian.com/world/live/2026/jan/04/nicolas-maduro-jailed-us-attack-venezuela-donald-trump-reaction-latest-news-updates-live\">Trump’s Venezuela intervention: latest updates</a></p></li></ul><p><a href=\"https://www.theguardian.com/us-news/democrats\">Democratic</a> leaders responded with fury on Sunday to <a href=\"https://www.theguardian.com/us-news/donaldtrump\">Donald Trump</a>’s military intervention in <a href=\"https://www.theguardian.com/world/venezuela\">Venezuela</a>, slamming it as an illegal act carried out in <a href=\"https://www.theguardian.com/us-news/2026/jan/04/trump-congress-venezuela-attack\">the absence</a> of required congressional approval that would lead to disaster for the American people.</p><p>Top Democrats took to the Sunday TV political talk shows to express their dismay at the lack of any prior notification of lawmakers about the <a href=\"https://www.theguardian.com/world/2026/jan/03/explosions-reported-venezuela-caracas\">audacious military raid</a> 24 hours earlier.</p> <a href=\"https://www.theguardian.com/us-news/2026/jan/04/democrats-trump-white-house-venezuela\">Continue reading...</a>",
        "link": "https://www.theguardian.com/us-news/2026/jan/04/democrats-trump-white-house-venezuela",
        "severity": 4,
        "scraped_at": "2026-01-04T18:54:44.523813+00:00"
      }
    },
    {
      "type": "Feature",
      "geometry": {
        "type": "Point",
        "coordinates": [
          -66.5897,
          6.4238
        ]
      },
      "properties": {
        "id_hash": "ffd02c6d9a69146a5f97b8a46a227a396e7afbdc993f978535b5324e444af8fb",
        "title": "Top Republicans backpedal from Trump claim that US will run Venezuela",
        "summary": "<p>Secretary of State Marco Rubio defends capture of Nicolás Maduro and says US has ‘leverage’ over country</p><p>Marco Rubio, the US secretary of state, and prominent Republicans swiftly backpedaled from Donald Trump’s<a href=\"https://www.theguardian.com/us-news/2026/jan/03/trump-venezuela-oil-industry\"> assertion</a> that the US will run <a href=\"https://www.theguardian.com/world/venezuela\">Venezuela</a> in transition after US forces snatched the president, Nicolás Maduro, and brought him to the US to face federal criminal charges.</p><p>Rubio appeared on numerous US politics shows on Sunday morning to defend the US operation in the early hours of Saturday to capture Maduro and his wife despite critics calling the operation illegal on multiple levels and the White House failing to demonstrate how it would run the South American nation.</p> <a href=\"https://www.theguardian.com/world/2026/jan/04/venezuela-trump-rubio-republicans\">Continue reading...</a>",
        "link": "https://www.theguardian.com/world/2026/jan/04/venezuela-trump-rubio-republicans",
        "severity": 0,
        "scraped_at": "2026-01-04T18:54:44.523919+00:00"
      }
    },
    {
      "type": "Feature",
      "geometry": {
        "type": "Point",
        "coordinates": [
          -66.5897,
          6.4238
        ]
      },
      "properties": {
        "id_hash": "6273fbfb657379cb48624aef67451c84956d19da6d155fb95ad92aebe52c8305",
        "title": "UK ‘not entirely clear’ what it means for US to ‘run’ Venezuela",
        "summary": "<p>UK waiting to determine if US breached international law by capturing Nicolás Maduro, PM’s chief secretary says</p><ul><li><p><a href=\"https://www.theguardian.com/world/live/2026/jan/04/nicolas-maduro-jailed-us-attack-venezuela-donald-trump-reaction-latest-news-updates-live\">Venezuela crisis – latest updates</a></p></li></ul><p>The UK is “not entirely clear” what it means for the US to be in charge of Venezuela, the chief secretary to the prime minister has said, urging a move towards a peaceful transition of power.</p><p>Darren Jones said the UK would wait to determine whether there had been a breach of international law after the US attacked the Venezuelan capital and captured its president, Nicolás Maduro, and his wife on Saturday.</p> <a href=\"https://www.theguardian.com/politics/2026/jan/04/uk-unclear-us-attack-venezuela\">Continue reading...</a>",
        "link": "https://www.theguardian.com/politics/2026/jan/04/uk-unclear-us-attack-venezuela",
        "severity": 4,
        "scraped_at": "2026-01-04T18:54:44.524027+00:00"
      }
    },
    {
      "type": "Feature",
      "geometry": {
        "type": "Point",
        "coordinates": [
          -66.5897,
          6.4238
        ]
      },
      "properties": {
        "id_hash": "f764c0e6c2f78606697db38a48ce542e54a81a3b953999d01faaf085c216c529",
        "title": "European leaders appear torn in face of new world order after Venezuela attack",
        "summary": "<p>Leaders try to focus on what comes next, as backing for ejection of Maduro mingles uncomfortably with voicing of support for international law</p><ul><li><p><a href=\"https://www.theguardian.com/world/live/2026/jan/04/nicolas-maduro-jailed-us-attack-venezuela-donald-trump-reaction-latest-news-updates-live\">Venezuela crisis: latest updates</a></p></li></ul><p>European leaders emerged divided and torn as they tried to welcome the ejection of Venezuela’s authoritarian president, but still uphold the principles of international law that did not appear to allow Donald Trump to seize Nicolás Maduro, let alone declare that the US <a href=\"https://www.theguardian.com/us-news/2026/jan/03/trump-venezuela-oil-industry\">will run Venezuela and control its oil industry</a>.</p><p>Europe tried to focus on the principle of a democratic transition, pointing out that the continent had not recognised Maduro as the legitimate leader of Venezuela since what were <a href=\"https://www.theguardian.com/world/article/2024/aug/10/gonzalez-proof-win-venezuela-election-vote-tally-maduro\">widely regarded as fraudulent elections in June 2024.</a></p> <a href=\"https://www.theguardian.com/world/2026/jan/04/venezuela-european-leaders-divided-and-torn-in-response-to-us-ousting-of-maduro\">Continue reading...</a>",
        "link": "https://www.theguardian.com/world/2026/jan/04/venezuela-european-leaders-divided-and-torn-in-response-to-us-ousting-of-maduro",
        "severity": 2,
        "scraped_at": "2026-01-04T18:54:44.524155+00:00"
      }
    },
    {
      "type": "Feature",
      "geometry": {
        "type": "Point",
        "coordinates": [
          104.1954,
          35.8617
        ]
      },
      "properties": {
        "id_hash": "975e63a7ac4328aaa1386a8a4b7144706dc05b1933116dfd4f28da07e98cfb2b",
        "title": "North Korea launches ballistic missiles towards sea before South Korean leader’s visit to China",
        "summary": "<p>South Korea’s military reports projectile launch hours before Lee Jae Myung was due to head to Beijing </p><p>North Korea launched ballistic missiles towards the sea on Sunday, its neighbours said, just hours before South Korea’s president was due to leave for talks in China expected to cover North Korea’s nuclear programme.</p><p>South Korea’s joint chiefs of staff said in a statement that they detected several ballistic missile launches from North Korea’s capital region at about 7.50am local time. They said the missiles flew about 560 miles (900km) and that South Korea and US authorities were analysing details of the launches.</p> <a href=\"https://www.theguardian.com/world/2026/jan/03/north-korea-has-fired-ballistic-missile-towards-the-sea-of-japan\">Continue reading...</a>",
        "link": "https://www.theguardian.com/world/2026/jan/03/north-korea-has-fired-ballistic-missile-towards-the-sea-of-japan",
        "severity": 2,
        "scraped_at": "2026-01-04T18:54:44.524240+00:00"
      }
    },
    {
      "type": "Feature",
      "geometry": {
        "type": "Point",
        "coordinates": [
          139.5591049,
          35.5460704
        ]
      },
      "properties": {
        "id_hash": "3e852f2637b36ce3a72990ee45b9a509b76d38cb56c10542f185e621b6b310ed",
        "title": "Crowd roars in standing ovation for Bondi hero Ahmed al-Ahmed at sold-out Ashes Test in Sydney",
        "summary": "<p>Cricketers and fans pay tribute to victims and first responders ahead of play at the SCG</p><ul><li><p><a href=\"https://www.theguardian.com/news/video/2025/dec/17/ten-minutes-of-terror-how-the-bondi-mass-shooting-unfolded-in-real-time-video\">Ten minutes of terror: how the Bondi mass shooting unfolded in real time – video</a></p></li><li><p>Get our <a href=\"https://www.theguardian.com/email-newsletters?CMP=cvau_sfl\">breaking news email</a>, <a href=\"https://app.adjust.com/w4u7jx3\">free app</a> or <a href=\"https://www.theguardian.com/australia-news/series/full-story?CMP=cvau_sfl\">daily news podcast</a></p></li></ul><p>A sold-out SCG crowd roared as Ahmed al-Ahmed, his arm in sling and his hand on his heart, walked onto the pitch just before play began of the final Test of the Ashes series.</p><p>The Syrian-born father of two <a href=\"https://www.theguardian.com/australia-news/2025/dec/29/wounded-hero-ahmed-al-ahmed-speaks-of-saving-lives-at-bondi-beach-ntwnfb\">helped disarm one of two gunmen</a> during the Bondi terror attack, and on Sunday took part in the tributes made to the victims and those who risked their lives attending them.</p> <a href=\"https://www.theguardian.com/australia-news/2026/jan/04/crowd-roars-in-standing-ovation-for-bondi-hero-ahmed-al-ahmed-at-sold-out-ashes-test-in-sydney-ntwnfb\">Continue reading...</a>",
        "link": "https://www.theguardian.com/australia-news/2026/jan/04/crowd-roars-in-standing-ovation-for-bondi-hero-ahmed-al-ahmed-at-sold-out-ashes-test-in-sydney-ntwnfb",
        "severity": 2,
        "scraped_at": "2026-01-04T18:54:45.984915+00:00"
      }
    },
    {
      "type": "Feature",
      "geometry": {
        "type": "Point",
        "coordinates": [
          18.0,
          56.0
        ]
      },
      "properties": {
        "id_hash": "cdf01fb8f5b9e45afab4aa5a074360bb7ea5551af4d18564aa6a91fead7d5d3f",
        "title": "More than 60 prominent sportspeople call for federal royal commission after Bondi attack",
        "summary": "<p>Tennis figure Lleyton Hewitt, Olympic gold medallists Jessica Fox and Ian Thorpe, and ex-Australian cricket captain Michael Clarke among open letter’s signatories </p><ul><li><p>Get our <a href=\"https://www.theguardian.com/email-newsletters?CMP=cvau_sfl\">breaking news email</a>, <a href=\"https://app.adjust.com/w4u7jx3\">free app</a> or <a href=\"https://www.theguardian.com/australia-news/series/full-story?CMP=cvau_sfl\">daily news podcast</a></p></li></ul><p>More than 60 Australian sports stars have called on Anthony Albanese to establish a federal royal commission into antisemitism, radicalisation and the Bondi terror attack, as pressure on the government continues.</p><p>In an open letter published on Sunday, prominent athletes including former Olympic swimmers Dawn Fraser and Ian Thorpe, canoeist Jess Fox and former tennis player Lleyton Hewitt said the attack, in which 15 people were killed, was “a national crisis, and it demands a national response”.</p> <a href=\"https://www.theguardian.com/australia-news/2026/jan/04/more-than-60-prominent-sportspeople-call-for-federal-royal-commission-after-bondi-attack-ntwnfb\">Continue reading...</a>",
        "link": "https://www.theguardian.com/australia-news/2026/jan/04/more-than-60-prominent-sportspeople-call-for-federal-royal-commission-after-bondi-attack-ntwnfb",
        "severity": 4,
        "scraped_at": "2026-01-04T18:54:47.518878+00:00"
      }
    },
    {
      "type": "Feature",
      "geometry": {
        "type": "Point",
        "coordinates": [
          -66.5897,
          6.4238
        ]
      },
      "properties": {
        "id_hash": "103fa7d58d223524c18b80747cf1d976c6d03cd3cf0e58c6587c86b8a3ef0037",
        "title": "Albanese calls for ‘peaceful, democratic transition’ of power in Venezuela after US capture of Nicolás Maduro",
        "summary": "<p>Australian prime minister says government has ‘long held concerns about the situation’ in South American country</p><ul><li><p><a href=\"https://www.theguardian.com/world/live/2026/jan/03/caracas-explosions-venezuela-maduro-latest-news-updates-live\">US attacks Venezuela – live updates</a></p></li><li><p>Get our <a href=\"https://www.theguardian.com/email-newsletters?CMP=cvau_sfl\">breaking news email</a>, <a href=\"https://app.adjust.com/w4u7jx3\">free app</a> or <a href=\"https://www.theguardian.com/australia-news/series/full-story?CMP=cvau_sfl\">daily news podcast</a></p></li></ul><p>The Australian prime minister says he backs a “peaceful, democratic transition” of power in Venezuela after the forcible capture of <a href=\"https://www.theguardian.com/world/nicolas-maduro\">Nicolás Maduro</a> by the US military, but has urged that international law be respected.</p><p>In a cautious statement, Anthony Albanese said his government was “monitoring developments” after <a href=\"https://www.theguardian.com/us-news/2026/jan/03/trump-venezuela-oil-industry\">Venezuela’s president and his wife were captured</a> and transported to the US.</p> <a href=\"https://www.theguardian.com/world/2026/jan/04/albanese-calls-for-peaceful-democratic-transition-of-power-in-venezuela-after-us-capture-of-nicolas-maduro\">Continue reading...</a>",
        "link": "https://www.theguardian.com/world/2026/jan/04/albanese-calls-for-peaceful-democratic-transition-of-power-in-venezuela-after-us-capture-of-nicolas-maduro",
        "severity": 4,
        "scraped_at": "2026-01-04T18:54:47.519061+00:00"
      }
    },
    {
      "type": "Feature",
      "geometry": {
        "type": "Point",
        "coordinates": [
          -66.5897,
          6.4238
        ]
      },
      "properties": {
        "id_hash": "a5ce525a51445944156ef8b9f1156a682cfdde8dbd193b1cdd610736b0228f68",
        "title": "US attack on Venezuela raises fears of future Greenland takeover",
        "summary": "<p>Danish ambassador posts ‘friendly reminder’ about defence ties after provocative Maga post over territory</p><ul><li><p><a href=\"https://www.theguardian.com/world/live/2026/jan/04/nicolas-maduro-jailed-us-attack-venezuela-donald-trump-reaction-latest-news-updates-live\">Venezuela crisis – latest updates</a></p></li></ul><p>The US bombardment of Venezuela and the capture of its president, Nicolás Maduro, has renewed fears of an American takeover of Greenland, as members of Donald Trump’s Maga movement gleefully set their sights on the Danish territory after the attack in South America.</p><p>Just hours after the <a href=\"https://www.theguardian.com/world/2026/jan/03/why-trump-us-attacked-caracas-captured-venezuela-president-nicolas-maduro\">US military operation in Venezuela</a>, the rightwing podcaster <a href=\"https://www.theguardian.com/us-news/2025/dec/13/katie-miller-podcast-review\">Katie Miller</a> –<strong> </strong>the wife of Stephen Miller, Donald Trump’s powerful deputy chief of staff for policy – <a href=\"https://x.com/KatieMiller/status/2007541679293944266\">posted on X</a> a map of Greenland draped in the stars and stripes with the caption: “SOON.”</p> <a href=\"https://www.theguardian.com/world/2026/jan/04/greenland-denmark-us-venezuela-nicolas-maduro-donald-trump\">Continue reading...</a>",
        "link": "https://www.theguardian.com/world/2026/jan/04/greenland-denmark-us-venezuela-nicolas-maduro-donald-trump",
        "severity": 2,
        "scraped_at": "2026-01-04T18:54:47.519216+00:00"
      }
    },
    {
      "type": "Feature",
      "geometry": {
        "type": "Point",
        "coordinates": [
          -98.5795,
          39.8283
        ]
      },
      "properties": {
        "id_hash": "a28b31ec97d592cae906d83b25151a370e7674f6d62a9f3775b9d2ab7d76a408",
        "title": "Leftwing militants claim responsibility for arson attack on Berlin power grid",
        "summary": "<p>Protest over climate crisis and AI has cut power to tens of thousands of homes which may take days to fully restore</p><p>German leftwing militants protesting over the climate crisis and AI have claimed responsibility for <a href=\"https://www.theguardian.com/world/2026/jan/03/berlin-power-outage-hits-homes-suspected-arson-attack\">an arson attack</a> that cut power to tens of thousands of households in Berlin.</p><p>The fire that broke out on a bridge across the Teltow canal in the south-west of the capital early on Saturday could deprive up to 35,000 homes and 1,900 businesses of electricity – and in many cases heat – until 8 January, the grid company Stromnetz Berlin said.</p> <a href=\"https://www.theguardian.com/world/2026/jan/04/leftwing-militants-responsibility-arson-attack-berlin-power-grid\">Continue reading...</a>",
        "link": "https://www.theguardian.com/world/2026/jan/04/leftwing-militants-responsibility-arson-attack-berlin-power-grid",
        "severity": 2,
        "scraped_at": "2026-01-04T18:54:47.519370+00:00"
      }
    },
    {
      "type": "Feature",
      "geometry": {
        "type": "Point",
        "coordinates": [
          4.6667145,
          50.6402809
        ]
      },
      "properties": {
        "id_hash": "9841f34406a83d9d07e8e07db545300d72d1d36b18343104f6728f618f13a020",
        "title": "Belgian PM’s cat Maximus is social media star with ‘subliminal political message’",
        "summary": "<p>Maximus Textoris Pulcher, an official resident at Rue de la Loi 16, shows a warmer side of Bart De Wever </p><p>For nearly 15 years, Britain’s <a href=\"https://www.theguardian.com/politics/2025/nov/08/a-rats-to-riches-story-larry-the-downing-street-cat-finds-place-in-tv-spotlight\">Larry the Cat</a> has charmed visitors to 10 Downing Street. Now another prime ministerial pet is proving a social media hit in Belgium.</p><p>Maximus Textoris Pulcher was <a href=\"https://premier.be/en/maximus-new-resident-number-16\">announced in August</a> as an official resident at the Belgian prime minister’s office, Rue de la Loi 16 in central Brussels.</p> <a href=\"https://www.theguardian.com/media/2026/jan/04/belgium-bart-de-wever-cat-maximus-textoris-pulcher-social-media-instagram\">Continue reading...</a>",
        "link": "https://www.theguardian.com/media/2026/jan/04/belgium-bart-de-wever-cat-maximus-textoris-pulcher-social-media-instagram",
        "severity": 2,
        "scraped_at": "2026-01-04T18:54:48.932398+00:00"
      }
    },
    {
      "type": "Feature",
      "geometry": {
        "type": "Point",
        "coordinates": [
          -125.002441,
          55.001251
        ]
      },
      "properties": {
        "id_hash": "93896421db38368a1f44a0cf4ac91324c4aa0ee618d84b3bd51686b48fb9dc16",
        "title": "British and French aircraft attack underground Islamic State weapons store in Syria",
        "summary": "<p>Guided bombs used to target tunnels at site near to city of Palmyra in raid intended to ‘eliminate dangerous terrorists’</p><p>British and French aircraft have carried out a joint strike on an underground facility in Syria that had been occupied by Islamic State, the UK Ministry of Defence has said.</p><p>Guided bombs were used to target access tunnels to the site, in the mountainous region near the ancient city of Palmyra in the centre of the country, on Saturday evening.</p> <a href=\"https://www.theguardian.com/world/2026/jan/03/british-and-french-aircraft-attack-underground-isis-weapons-store-in-syria\">Continue reading...</a>",
        "link": "https://www.theguardian.com/world/2026/jan/03/british-and-french-aircraft-attack-underground-isis-weapons-store-in-syria",
        "severity": 6,
        "scraped_at": "2026-01-04T18:54:50.382695+00:00"
      }
    },
    {
      "type": "Feature",
      "geometry": {
        "type": "Point",
        "coordinates": [
          -98.5795,
          39.8283
        ]
      },
      "properties": {
        "id_hash": "89ca3790cb640f301b71e3647d3f8b1604b210eb4cc2d769d895b2c1360246e7",
        "title": "Tents supplied to displaced Palestinians ‘inadequate for Gaza winter’",
        "summary": "<p>Thousands have blown down in storms and tents from China, Egypt and Saudi Arabia found to be not waterproof</p><p>Thousands of tents supplied by China, Egypt and Saudi Arabia to shelter displaced Palestinians in Gaza offer only limited protection against rain and wind, an assessment compiled by shelter specialists in the devastated territory has revealed.</p><p>The assessment will undermine claims that Palestinians in Gaza are being supplied with adequate shelter. Fierce storms in recent weeks blew down or damaged thousands of tents, affecting at least 235,000 people, <a href=\"https://www.unrwa.org/resources/reports/unrwa-situation-report-202-situation-gaza-strip-and-west-bank-including-east-jerusalem\">according to UN estimates</a>.</p> <a href=\"https://www.theguardian.com/world/2026/jan/03/tents-supplied-to-displaced-palestinians-inadequate-for-gaza-winter\">Continue reading...</a>",
        "link": "https://www.theguardian.com/world/2026/jan/03/tents-supplied-to-displaced-palestinians-inadequate-for-gaza-winter",
        "severity": 0,
        "scraped_at": "2026-01-04T18:54:50.382939+00:00"
      }
    },
    {
      "type": "Feature",
      "geometry": {
        "type": "Point",
        "coordinates": [
          42.3528328,
          25.6242618
        ]
      },
      "properties": {
        "id_hash": "6bba233c0b177a3f860cb5ceef344a1a8bab597284b42bb809acf0639df66e78",
        "title": "Saudi invites Yemen’s southern factions to ‘dialogue’ in Riyadh after surprise independence bid",
        "summary": "<p>Southern Transitional Council wants to form a breakaway state, which would split the Arabian Peninsula’s poorest state in two</p><p>Saudi Arabia’s foreign ministry has called for Yemen’s southern factions to attend a “dialogue” in Riyadh, after a surprise independence bid and the United Arab Emirates declaring it had withdrawn all troops from Yemen.</p><p>In a statement on Saturday, the Saudi ministry urged “a comprehensive conference in Riyadh to bring together all southern factions to discuss just solutions to the southern cause”. Riyadh said the Yemeni government had issued the invitation for talks.</p> <a href=\"https://www.theguardian.com/world/2026/jan/02/saudi-warplanes-kill-uae-backed-yemeni-separatists\">Continue reading...</a>",
        "link": "https://www.theguardian.com/world/2026/jan/02/saudi-warplanes-kill-uae-backed-yemeni-separatists",
        "severity": 2,
        "scraped_at": "2026-01-04T18:54:51.785357+00:00"
      }
    },
    {
      "type": "Feature",
      "geometry": {
        "type": "Point",
        "coordinates": [
          32.0565149,
          52.0545901
        ]
      },
      "properties": {
        "id_hash": "7af54ddf2c3b7c1fbb9401e6a366930eabc19a56217b9a788a8f6efcdbba57b1",
        "title": "Snow forecast hits Scottish schools and cold health alerts in place for England",
        "summary": "<p>Flights cancelled and travel warnings issued with 30cm of snow expected on high ground in northern Scotland </p><p>Transport delays, treacherous driving conditions and school closures will greet many people as they return to work and study after the Christmas break, with winter weather warnings in place across the UK.</p><p><a href=\"https://weather.metoffice.gov.uk/warnings-and-advice/uk-warnings#?date=2026-01-04\">Four amber warnings</a> for heavy snow in northern Scotland are in place until Monday morning, while yellow snow and ice warnings cover all of Northern Ireland, Wales and much of England.</p> <a href=\"https://www.theguardian.com/uk-news/2026/jan/04/snow-scotland-cold-health-alerts-england-weather\">Continue reading...</a>",
        "link": "https://www.theguardian.com/uk-news/2026/jan/04/snow-scotland-cold-health-alerts-england-weather",
        "severity": 2,
        "scraped_at": "2026-01-04T18:54:53.259679+00:00"
      }
    },
    {
      "type": "Feature",
      "geometry": {
        "type": "Point",
        "coordinates": [
          -2.7707796,
          54.6487
        ]
      },
      "properties": {
        "id_hash": "7d8399752a4ae2260ac4e2f566c3c1caddd95439a7eea27c1d9ad0c4cba56513",
        "title": "‘Durham’s other cathedral’: mining union hall reopens after £14m restoration",
        "summary": "<p>Considered one of world’s finest trade union buildings and famous for its ‘pitmen’s parliament’, Redhills was built on a grand scale</p><p>Outside the impressively grand, Edwardian baroque building in Durham are two wooden benches, each dedicated to men who died too young.</p><p>They were, the inscription reads, both “sacked and victimised” during the 1984-85 miners’ strike. Yet they’re in grounds that look as if they might have been owned by rich, exploitative mine owners.</p> <a href=\"https://www.theguardian.com/politics/2026/jan/04/durham-mining-union-hall-redhills-reopens-after-14m-pounds-restoration\">Continue reading...</a>",
        "link": "https://www.theguardian.com/politics/2026/jan/04/durham-mining-union-hall-redhills-reopens-after-14m-pounds-restoration",
        "severity": 4,
        "scraped_at": "2026-01-04T18:54:54.618730+00:00"
      }
    },
    {
      "type": "Feature",
      "geometry": {
        "type": "Point",
        "coordinates": [
          -0.0893749,
          51.5131048
        ]
      },
      "properties": {
        "id_hash": "cf9a44af4cb9af868e2e9d3b5c412b93a29bc4b7a979fcc2d6d29339cbc1ebe2",
        "title": "HSBC becomes first big UK lender to cut its mortgage rates in 2026",
        "summary": "<p>Reduction follows Bank of England’s base cut in December, with further cuts expected this year</p><p>HSBC has become the first major lender to cut mortgage rates this year, a move that could spark a price war over the coming months.</p><p>The banking group, which is one of the UK’s largest mortgage lenders, has cut rates across a range of residential and landlord buy-to-let mortgage products. The new rates come into effect on Monday.</p> <a href=\"https://www.theguardian.com/business/2026/jan/04/hsbc-first-big-uk-lender-cut-mortgage-rates-2026\">Continue reading...</a>",
        "link": "https://www.theguardian.com/business/2026/jan/04/hsbc-first-big-uk-lender-cut-mortgage-rates-2026",
        "severity": 2,
        "scraped_at": "2026-01-04T18:54:56.032745+00:00"
      }
    },
    {
      "type": "Feature",
      "geometry": {
        "type": "Point",
        "coordinates": [
          -89.6884637,
          44.4308975
        ]
      },
      "properties": {
        "id_hash": "f86e612ce201efa402001596c7078e5656b9556bed1c3e108d37c852a59d92df",
        "title": "Wisconsin judge resigns after being convicted of obstructing immigrant arrest",
        "summary": "<p>Hannah Dugan faced calls to resign from state Republicans amid threats to impeach her if she did not</p><p>The Wisconsin judge convicted of obstruction for helping an immigrant evade federal officers has resigned.</p><p>Hannah Dugan was convicted on 19 December and had faced calls to resign from state Republicans, who threatened to impeach her if she did not.</p> <a href=\"https://www.theguardian.com/us-news/2026/jan/04/wisconsin-judge-resigns-immigration-ice\">Continue reading...</a>",
        "link": "https://www.theguardian.com/us-news/2026/jan/04/wisconsin-judge-resigns-immigration-ice",
        "severity": 0,
        "scraped_at": "2026-01-04T18:54:57.434740+00:00"
      }
    },
    {
      "type": "Feature",
      "geometry": {
        "type": "Point",
        "coordinates": [
          -66.5897,
          6.4238
        ]
      },
      "properties": {
        "id_hash": "5741330b83bcd4146cbc9fa167e2a41a219b14a26c7642b0a418e926908f8375",
        "title": "Trump’s attack on Venezuela without alerting Congress tests limits of executive power",
        "summary": "<p>Trump’s audacious arrest of Maduro marks a conspicuous break with convention, even as previously observed by the president himself</p><p>Nothing speaks more eloquently of the disempowering of the US Congress under Donald Trump’s second presidency than the brazenly audacious detention of Venezuela’s leader, Nicolás Maduro and his wife, Cilia.</p><p>Far from recognizing it, Trump did not even acknowledge Congress’s right to know – keeping senior members in the dark until the operation to seize the strongman was under way.</p> <a href=\"https://www.theguardian.com/us-news/2026/jan/04/trump-congress-venezuela-attack\">Continue reading...</a>",
        "link": "https://www.theguardian.com/us-news/2026/jan/04/trump-congress-venezuela-attack",
        "severity": 2,
        "scraped_at": "2026-01-04T18:54:57.434956+00:00"
      }
    },
    {
      "type": "Feature",
      "geometry": {
        "type": "Point",
        "coordinates": [
          -77.059958,
          36.0823799
        ]
      },
      "properties": {
        "id_hash": "220b23f35f98eb1a41843d39fdce2939f39ea220146d8751aa0af72c26856b9d",
        "title": "Republican claims of ‘terrorism’ leave everyone unsafe, Muslim leader warns",
        "summary": "<p>Edward Ahmed Mitchell of Council on American-Islamic Relations says Texas and Florida governors abusing power</p><p>The deputy director of the US’s biggest Muslim civil rights and advocacy group warns that Republican governors’ steps to declare his organization a “terrorist organization” won’t stop with the Muslim community.</p><p>“No governor should have the power to unilaterally declare a civil rights or advocacy group he disagrees with a terrorist organization, take punitive action against them, all in violation of due process and free speech,” Edward Ahmed Mitchell, the deputy director of the Council on American-Islamic Relations, told the Guardian this month. “If any governor can get away with abusing that kind of power, then no organization is safe.”</p> <a href=\"https://www.theguardian.com/us-news/2026/jan/04/republican-governors-muslim-community-attacks\">Continue reading...</a>",
        "link": "https://www.theguardian.com/us-news/2026/jan/04/republican-governors-muslim-community-attacks",
        "severity": 6,
        "scraped_at": "2026-01-04T18:54:58.857109+00:00"
      }
    },
    {
      "type": "Feature",
      "geometry": {
        "type": "Point",
        "coordinates": [
          -66.5897,
          6.4238
        ]
      },
      "properties": {
        "id_hash": "90645ef196913379bc96ceaa93d415e49fdb02cd22ae5da82b4eb3f353007cdc",
        "title": "Trump casts doubts about Maria Corina Machado to run Venezuela",
        "summary": "Venezuela's armed forces have been deployed across the country to ensure the protection of national sovereignty, Defence Minister Vladimir Padrino said Sunday, adding that many of Maduro’s security team were killed in the operation on Saturday that saw president Nicolas Maduro captured by US forces. Earlier, US President Donald Trump said Washington would run Venezuela until there can be a proper, “safe” transition, sparking fears of a power vacuum. France24 International Affairs Editor Kethevane Gorjestani tells us more.",
        "link": "https://www.france24.com/en/video/20260104-trump-casts-doubts-about-maria-corina-machado-to-run-venezuela",
        "severity": 2,
        "scraped_at": "2026-01-04T18:54:59.660223+00:00"
      }
    },
    {
      "type": "Feature",
      "geometry": {
        "type": "Point",
        "coordinates": [
          -75.6930911,
          45.4780194
        ]
      },
      "properties": {
        "id_hash": "3ddc854e48f40e418dd09fa9230311517540ff686725131dc2365082011115c8",
        "title": "Scores of Yemeni separatists killed in clashe and strikes, military official says",
        "summary": "At least 80 fighters from Yemen’s Southern Transitional Council (STC) have been killed in clashes with Saudi-backed forces since Friday, a military official said Sunday. The ongoing offensive, aimed at reclaiming territory seized by the UAE-backed STC, has also left 152 wounded and 130 captured. The Saudi-led coalition has stepped up strikes, particularly in Hadramawt, which it claimed to have recaptured on Saturday.",
        "link": "https://www.france24.com/en/middle-east/20260104-scores-of-yemeni-separatists-killed-in-clashe-and-strikes-military-official-says",
        "severity": 4,
        "scraped_at": "2026-01-04T18:55:01.131359+00:00"
      }
    },
    {
      "type": "Feature",
      "geometry": {
        "type": "Point",
        "coordinates": [
          -66.5897,
          6.4238
        ]
      },
      "properties": {
        "id_hash": "e147418c45c6bc7fe0ab9b2b78eed181c1ee57834b1b140e570f0d641cb265f1",
        "title": "Live: Venezuela military tells population to resume normal activities after US captures Maduro",
        "summary": "",
        "link": "https://www.france24.com/en/americas/20260104-live-venezuela-maduro-held-in-us-custody-as-trump-vows-to-run-the-country-us",
        "severity": 0,
        "scraped_at": "2026-01-04T18:55:01.131464+00:00"
      }
    },
    {
      "type": "Feature",
      "geometry": {
        "type": "Point",
        "coordinates": [
          -66.5897,
          6.4238
        ]
      },
      "properties": {
        "id_hash": "20780027b317b0940714a809abd5b4511dd6640daeab7e99cb0c26a867709bd5",
        "title": "Venezuela: Condemnation and support to capture of Nicolas Maduro",
        "summary": "US authorities on Saturday unsealed an indictment accusing Venezuelan President Nicolas Maduro and his wife of running a corrupt government that trafficked thousands of tons of cocaine into the US, following their capture in a dramatic military operation. Professor of Sociology at Tulane University in New Orleans, David Smilde, shares his insights.",
        "link": "https://www.france24.com/en/video/20260104-venezuela-condemnation-and-support-to-capture-of-nicolas-maduro",
        "severity": 0,
        "scraped_at": "2026-01-04T18:55:01.131563+00:00"
      }
    },
    {
      "type": "Feature",
      "geometry": {
        "type": "Point",
        "coordinates": [
          -66.9146008,
          10.5060934
        ]
      },
      "properties": {
        "id_hash": "17ee3ae568e6e4fa96f24f88ef534f1ca4fcba34bc42467793004f5904eddb23",
        "title": "Caracas smash-and-grab underscores dominance of US military tech",
        "summary": "How did the US pull off its complex extraction operation in the heart of Caracas? The answer is less about futuristic, top-secret weapons, and more about scale and coordination. Tech 24's Peter O'Brien looks at the aircraft, electronic warware, space and cyber capabilities behind the raid.",
        "link": "https://www.france24.com/en/tv-shows/tech-24/20260104-caracas-smash-and-grab-underscores-dominance-of-us-military-tech",
        "severity": 2,
        "scraped_at": "2026-01-04T18:55:02.593935+00:00"
      }
    },
    {
      "type": "Feature",
      "geometry": {
        "type": "Point",
        "coordinates": [
          14.12456,
          47.59397
        ]
      },
      "properties": {
        "id_hash": "b4b0f15f8b96dee53e127304726b693cf5b808a9147b4aee6660f7e17345564b",
        "title": "At least 114 killed in week of fighting in Sudan’s Darfur",
        "summary": "At least 114 people have been killed in the past week as Sudan's army and the Rapid Support Forces (RSF) clash in Darfur, medical sources revealed Sunday. Drone strikes by the military on the RSF-controlled town of Al-Zuruq on Saturday killed 51 civilians, while RSF assaults on the town of Kernoi left 63 dead and 17 injured.",
        "link": "https://www.france24.com/en/africa/20260104-at-least-114-killed-in-week-of-fighting-in-sudan-s-darfur",
        "severity": 4,
        "scraped_at": "2026-01-04T18:55:03.975035+00:00"
      }
    },
    {
      "type": "Feature",
      "geometry": {
        "type": "Point",
        "coordinates": [
          -66.5897,
          6.4238
        ]
      },
      "properties": {
        "id_hash": "3d9b6e37d11a92b5bd1a513ce85ed04740bb96d3f7d9a0fd59e519dacba889a1",
        "title": "Trump says US will 'run' Venezuela",
        "summary": "US authorities on Saturday unsealed an indictment accusing Venezuelan President Nicolas Maduro and his wife of running a corrupt government that trafficked thousands of tons of cocaine into the US, following their capture in a dramatic military operation. Former senior US diplomat, ex-deputy mission chief in Caracas, Brian Naranjo tells us more.",
        "link": "https://www.france24.com/en/video/20260104-trump-says-us-will-run-venezuela",
        "severity": 0,
        "scraped_at": "2026-01-04T18:55:03.975145+00:00"
      }
    },
    {
      "type": "Feature",
      "geometry": {
        "type": "Point",
        "coordinates": [
          -66.5897,
          6.4238
        ]
      },
      "properties": {
        "id_hash": "3280fac27976d687d998cf51c0462ad1e6b5957a15b2573abf618cb0bad69eae",
        "title": "Venezuela: Who is Maduro's wife Cilia Flores?",
        "summary": "Nicolas Maduro's wife - Celia Flores is not only Venezuela's first lady, but also a central figure in the country's political sphere. \n \nA member of parliament, she has served as attorney general and president of the National Assembly. \n \nShe was a loyal supporter of Hugo Chavez - who then endorsed her husband's policies.\n \nCaroline Baum takes a closer look at her life.",
        "link": "https://www.france24.com/en/video/20260104-venezuela-who-is-maduro-s-wife-cilia-flores",
        "severity": 0,
        "scraped_at": "2026-01-04T18:55:03.975208+00:00"
      }
    },
    {
      "type": "Feature",
      "geometry": {
        "type": "Point",
        "coordinates": [
          -66.5897,
          6.4238
        ]
      },
      "properties": {
        "id_hash": "6ef6e1d559d53573db2aa643a8db1c733684526a9de9a449eddecd09e0e72fbb",
        "title": "The week in pictures: New Year celebrations, Venezuela's Maduro captured and AFCON 2025",
        "summary": "As the world celebrated the arrival of 2026, Venezuela's Nicolas Maduro was captured by US forces, Yemen found itself at the centre of escalating tensions between Saudi Arabia and the United Arab Emirates, and Zohran Mamdani was sworn in as New York City's new mayor: FRANCE 24 looks back at the week's most striking images.",
        "link": "https://www.france24.com/en/americas/20260104-the-week-in-pictures-new-year-celebrations-venezuela-s-maduro-captured-and-afcon-2025",
        "severity": 0,
        "scraped_at": "2026-01-04T18:55:03.975261+00:00"
      }
    },
    {
      "type": "Feature",
      "geometry": {
        "type": "Point",
        "coordinates": [
          -66.5897,
          6.4238
        ]
      },
      "properties": {
        "id_hash": "463685f5f1e156eea9f5e5665c415f8c0b1d106e6a466717311b56acb0fefd65",
        "title": "Venezuelan VicePresident calls for calm, unity",
        "summary": "Venezuela’s Supreme Court on Saturday appointed Vice President Delcy Rodriguez as interim president after the United States seized Nicolas Maduro, currently held in a New York detention centre. US President Donald Trump said Washington would run the country until there can be a “safe” transition, sparking fears of a power vacuum. Venezuelan-American journalist and writer, Germania Rodriguez Poleo, shares her insights.",
        "link": "https://www.france24.com/en/video/20260104-venezuelan-vicepresident-calls-for-calm-unity",
        "severity": 0,
        "scraped_at": "2026-01-04T18:55:03.975326+00:00"
      }
    },
    {
      "type": "Feature",
      "geometry": {
        "type": "Point",
        "coordinates": [
          -66.5897,
          6.4238
        ]
      },
      "properties": {
        "id_hash": "1e57a6db85bc83c8685b3cee0e8c91a971cd0c073cde297d28e580a8a1f33ae5",
        "title": "Venezuela: An operation months in the making",
        "summary": "Although the operation to capture Nicolás Maduro stunned the world, it had in fact been months in the planning, involving thousands of U.S. troops and the elite Army Delta Force; President Trump said some American forces were injured and that a helicopter came under fire, while Venezuela’s acting president Delcy Rodríguez declined to give a death toll but said civilians and members of the military were killed during the assault—Gabrielle Nadler has more on the audacious operation.",
        "link": "https://www.france24.com/en/video/20260104-venezuela-an-operation-months-in-the-making",
        "severity": 2,
        "scraped_at": "2026-01-04T18:55:03.975389+00:00"
      }
    },
    {
      "type": "Feature",
      "geometry": {
        "type": "Point",
        "coordinates": [
          -66.5897,
          6.4238
        ]
      },
      "properties": {
        "id_hash": "d1829f665ec52622480cb6adad1a7a9cd9b5658c77649c4d637855bfb815abbc",
        "title": "Cuba denounces 'state terrorism' against Venezuela as US warns Havana could be next",
        "summary": "Cuban President Miguel Diaz-Canel denounced the US capture of Venezuela’s Nicolas Maduro as \"state terrorism\" on Saturday, warning the loss of Venezuelan oil would hit Cuba’s fragile economy. Meanwhile, Secretary of State Marco Rubio implied that Havana could be the Trump administration's next target.",
        "link": "https://www.france24.com/en/americas/20260104-cuba-diaz-canel-denounces-state-terrorism-against-venezuela-us-rubio-trump-warns-havana-could-be-next",
        "severity": 2,
        "scraped_at": "2026-01-04T18:55:03.975439+00:00"
      }
    },
    {
      "type": "Feature",
      "geometry": {
        "type": "Point",
        "coordinates": [
          -66.5897,
          6.4238
        ]
      },
      "properties": {
        "id_hash": "099f7aed884faa8961152386421a496fb041a2cce70e209df57913c131365183",
        "title": "Venezuela: World leaders express disquiet at ouster",
        "summary": "Global leaders are condemning the capture of Nicolás Maduro and urging respect for international law, as reactions multiply from Paris to Beijing while more details emerge about the U.S. operation; Valériane Gauthier and Gabrielle Nadler have the story.",
        "link": "https://www.france24.com/en/video/20260104-venezuela-world-leaders-express-disquiet-at-ouster",
        "severity": 0,
        "scraped_at": "2026-01-04T18:55:03.975488+00:00"
      }
    },
    {
      "type": "Feature",
      "geometry": {
        "type": "Point",
        "coordinates": [
          -66.5897,
          6.4238
        ]
      },
      "properties": {
        "id_hash": "f158cfba1af0f5a29da1827f60b88deb5866e0362582d80a850f406a0cf66f32",
        "title": "US plans to 'run' Venezuela as Vice President to assure presidency",
        "summary": "Venezuela’s Supreme Court on Saturday appointed Vice President Delcy Rodriguez as interim president after the United States seized Nicolas Maduro, currently held in a New York detention centre. US President Donald Trump said Washington would run the country until there can be a “safe” transition, sparking fears of a power vacuum. France24 Fraser Jackson reports the latest.",
        "link": "https://www.france24.com/en/video/20260104-us-plans-to-run-venezuela-as-vice-president-to-assure-presidency",
        "severity": 0,
        "scraped_at": "2026-01-04T18:55:03.975588+00:00"
      }
    },
    {
      "type": "Feature",
      "geometry": {
        "type": "Point",
        "coordinates": [
          -66.5897,
          6.4238
        ]
      },
      "properties": {
        "id_hash": "823884a6d20ff961260f91f078d07990f97e901dab33d0832c6223733167c629",
        "title": "Venezuela: What's next for Maduro and for Latin America?",
        "summary": "Uncertainty now grips Venezuela as citizens question who is truly in charge, with Vice President Delcy Rodríguez stepping in as interim president and delivering a defiant speech condemning the U.S. operation, demanding Maduro’s release, and insisting he remains the country’s legitimate leader, even as Trump claimed she held a lengthy conversation with the U.S. Secretary of State in which she allegedly said, “We’ll do whatever you need,” signaling possible cooperation, while at the same time appearing to sideline opposition leader and Nobel Peace Prize winner María Corina Machado by saying she lacks the “support or respect” to lead. Emeritus Professor of Political Sciences at American University of Paris, Steven Ekovich, shares his insights.",
        "link": "https://www.france24.com/en/video/20260104-venezuela-what-s-next-for-maduro-and-for-latin-america",
        "severity": 0,
        "scraped_at": "2026-01-04T18:55:03.975718+00:00"
      }
    },
    {
      "type": "Feature",
      "geometry": {
        "type": "Point",
        "coordinates": [
          -66.5897,
          6.4238
        ]
      },
      "properties": {
        "id_hash": "b1453b40fec547bdd7910d10938e02ff4ccf034feb8b7dcdcf2ae6f73cd29623",
        "title": "Havana linked to Venezuelan energy: US policy voices suggest possible action",
        "summary": "Uncertainty now grips Venezuela as citizens question who is truly in charge, with Vice President Delcy Rodríguez stepping in as interim president and delivering a defiant speech condemning the U.S. operation, demanding Maduro’s release, and insisting he remains the country’s legitimate leader, even as Trump claimed she held a lengthy conversation with the U.S. Secretary of State in which she allegedly said, “We’ll do whatever you need,” signaling possible cooperation, while at the same time appearing to sideline opposition leader and Nobel Peace Prize winner María Corina Machado by saying she lacks the “support or respect” to lead; Nick Rushworth has more.",
        "link": "https://www.france24.com/en/video/20260104-havana-linked-to-venezuelan-energy-us-policy-voices-suggest-possible-action",
        "severity": 0,
        "scraped_at": "2026-01-04T18:55:03.975801+00:00"
      }
    },
    {
      "type": "Feature",
      "geometry": {
        "type": "Point",
        "coordinates": [
          -66.5897,
          6.4238
        ]
      },
      "properties": {
        "id_hash": "9ac1043e5582e338dd2cbe8cd0cf85e901b8897ef1ebaf1e2b24675928deac93",
        "title": "Republicans slipt on Venezuela move",
        "summary": "The US military operation in Venezuela has sparked sharply divided reactions at home, drawing support from some Republicans while clashing with former President Trump’s largely non-interventionist base, and provoking outrage among Democrats, who argue the actions are blatantly illegal; Caroline Baum has the details in this package.",
        "link": "https://www.france24.com/en/video/20260104-republicans-slipt-on-venezuela-move",
        "severity": 0,
        "scraped_at": "2026-01-04T18:55:03.975854+00:00"
      }
    },
    {
      "type": "Feature",
      "geometry": {
        "type": "Point",
        "coordinates": [
          -74.2973,
          4.5709
        ]
      },
      "properties": {
        "id_hash": "3ef4f9368c5ce3247433478b791ef567ad7808ff8cd51b4e66bf4744700e8e70",
        "title": "Nariño pierde la batalla en su lucha contra la pólvora: ya ocupa el segundo lugar en Colombia con 145 personas quemadas; 23 son menores",
        "summary": "Dura crítica del alcalde de Pasto: “Por más que se dice, por más que se advierte siguen los quemados”.",
        "link": "https://www.eltiempo.com/colombia/cali/narino-pierde-la-batalla-en-su-lucha-contra-la-polvora-ya-ocupa-el-segundo-lugar-en-colombia-con-145-personas-quemadas-y-23-son-menores-3521708",
        "severity": 0,
        "scraped_at": "2026-01-04T18:55:08.331061+00:00"
      }
    },
    {
      "type": "Feature",
      "geometry": {
        "type": "Point",
        "coordinates": [
          -74.2973,
          4.5709
        ]
      },
      "properties": {
        "id_hash": "cf9897fd8cc0c3abc20a1cfe954f80d8370f51644d3bbb354e2decfbfca7baea",
        "title": "El Carnaval de Negros y Blancos llega a su versión 100 como vitrina cultural, económica y de convivencia en el sur del país",
        "summary": "Pasto celebra este 2026 el centenario de una de las fiestas más emblemáticas de Colombia.",
        "link": "https://www.eltiempo.com/colombia/otras-ciudades/el-carnaval-de-negros-y-blancos-llega-a-su-version-100-como-vitrina-cultural-economica-y-de-convivencia-en-el-sur-del-pais-3521631",
        "severity": 0,
        "scraped_at": "2026-01-04T18:55:08.331157+00:00"
      }
    },
    {
      "type": "Feature",
      "geometry": {
        "type": "Point",
        "coordinates": [
          -74.2973,
          4.5709
        ]
      },
      "properties": {
        "id_hash": "988b4fa7c5412f4a70cb6b581c6198aeff0dad8d0326c23adbcfe24692bbb70d",
        "title": "Estas son las nuevas tarifas de bus en Ibagué, Tolima: el pasaje subió 400 pesos y el alza quedó 10 puntos por debajo del salario mínimo en Colombia",
        "summary": "El ajuste pactado entre Alcaldía y empresas genera inconformidad ciudadana, reabre debate sobre la calidad del servicio y sobre el parque automotor.",
        "link": "https://www.eltiempo.com/colombia/otras-ciudades/estas-son-las-nuevas-tarifas-de-bus-en-ibague-tolima-el-pasaje-subio-400-pesos-y-el-alza-quedo-10-puntos-por-debajo-del-salario-minimo-en-colombia-3521621",
        "severity": 0,
        "scraped_at": "2026-01-04T18:55:08.331212+00:00"
      }
    },
    {
      "type": "Feature",
      "geometry": {
        "type": "Point",
        "coordinates": [
          -66.5897,
          6.4238
        ]
      },
      "properties": {
        "id_hash": "7e8b672bd88dd236f45e19f722b727a76fec5178163b58caa42385a8a5c4cf6f",
        "title": "La tensión que cruza la frontera: ¿cómo la crisis en Venezuela podría agravar el orden público en el Catatumbo y pone a Colombia en alerta máxima?",
        "summary": "A los expertos les preocupa que la captura de Nicolás Maduro por parte de EE. UU. obligue a Colombia a enfrentar dos crisis de manera simultánea.",
        "link": "https://www.eltiempo.com/colombia/otras-ciudades/la-tension-que-cruza-la-frontera-como-la-crisis-en-venezuela-podria-agravar-el-orden-publico-en-el-catatumbo-y-pone-a-colombia-en-alerta-maxima-3521608",
        "severity": 0,
        "scraped_at": "2026-01-04T18:55:08.331264+00:00"
      }
    },
    {
      "type": "Feature",
      "geometry": {
        "type": "Point",
        "coordinates": [
          -66.5897,
          6.4238
        ]
      },
      "properties": {
        "id_hash": "e2bc239a11056dcd38254b7ebf66ac333234aff49676fe3191768017c812d246",
        "title": "Gobernador de Antioquia criticó a la ONU por su 'inacción' y aseguró que 'EE.UU. se echó al hombro la aniquilación de la dictadura en Venezuela'",
        "summary": "El Secretario General de la ONU señaló que lo hecho por Estados Unidos sienta un precedente peligroso. Andrés Julián Rendón criticó a la organización.",
        "link": "https://www.eltiempo.com/colombia/medellin/gobernador-de-antioquia-critico-a-la-onu-por-su-inaccion-y-aseguro-que-ee-uu-se-echo-al-hombro-la-aniquilacion-de-la-dictadura-en-venezuela-3521594",
        "severity": 0,
        "scraped_at": "2026-01-04T18:55:08.331396+00:00"
      }
    },
    {
      "type": "Feature",
      "geometry": {
        "type": "Point",
        "coordinates": [
          -66.5897,
          6.4238
        ]
      },
      "properties": {
        "id_hash": "611915751f6083d4fb31e6f6942d4d01eaa567738f8685106b1306432006f6fc",
        "title": "Colombia reiteró su rechazo a la intervención de EE. UU. en Venezuela, pero se ofreció como mediador para buscar salidas",
        "summary": "El Gobierno de Colombia rechazó las acciones armadas contra Venezuela tras la captura de Nicolás Maduro.",
        "link": "https://noticias.rcnradio.com/colombia/colombia-descarta-intervencion-de-ee-uu-y-plantea-mediacion-en-venezuela?amp",
        "severity": 0,
        "scraped_at": "2026-01-04T18:55:13.510282+00:00"
      }
    },
    {
      "type": "Feature",
      "geometry": {
        "type": "Point",
        "coordinates": [
          -66.5897,
          6.4238
        ]
      },
      "properties": {
        "id_hash": "e47f4e88cac9eb101077eb7a9eb2f2fc0913e4281a6cfc25f277d8c50c1a4d7f",
        "title": "Captura de Nicolás Maduro Hoy: Cerrado el paso fronterizo de Paraguachón entre Colombia y Venezuela",
        "summary": "El paso fronterizo de Paraguachón, en La Guajira, permanece cerrado por tensiones regionales, afectando el comercio en la región.",
        "link": "https://noticias.rcnradio.com/colombia/captura-de-nicolas-maduro-hoy-cerrado-el-paso-fronterizo-de-paraguachon-entre-colombia-y-venezuela?amp",
        "severity": 0,
        "scraped_at": "2026-01-04T18:55:13.510368+00:00"
      }
    }
  ]
}